{
  "type": "FeatureCollection",
  "features": [
    {
      "type": "Feature",
      "properties": {
        "norad_id": 32224,
        "name": "FENGYUN 1C DEB",
        "group": "fengyun-1c-debris",
        "lat": 51.916668813628746,
        "lon": -70.64902537737404,
        "alt_km": 718.3612106641713,
        "timestamp": "2025-12-15T20:48:54.169583+00:00",
        "meta_object_name": "FENGYUN 1C DEB",
        "meta_object_id": "1999-025CVW",
        "meta_epoch": "2025-12-14T14:25:50.796768",
        "meta_mean_motion": 14.34026047,
        "meta_eccentricity": 0.00771719,
        "meta_inclination": 98.984,
        "meta_ra_of_asc_node": 299.6833,
        "meta_arg_of_pericenter": 61.1307,
        "meta_mean_anomaly": 299.7593,
        "meta_ephemeris_type": 0,
        "meta_classification_type": "U",
        "meta_norad_cat_id": 32224,
        "meta_element_set_no": 999,
        "meta_rev_at_epoch": 95750,
        "meta_bstar": 0.00040405507,
        "meta_mean_motion_dot": 1.12e-05,
        "meta_mean_motion_ddot": 0,
        "tle_line1": "1 32224U 99025CVW 25348.60128237  .00001120  00000+0  40406-3 0  9999",
        "tle_line2": "2 32224  98.9840 299.6833 0077171  61.1307 299.7593 14.34026047957505"
      },
      "geometry": {
        "type": "Point",
        "coordinates": [
          -70.64902537737404,
          51.916668813628746
        ]
      }
    },
    {
      "type": "Feature",
      "properties": {
        "norad_id": 32225,
        "name": "FENGYUN 1C DEB",
        "group": "fengyun-1c-debris",
        "lat": 47.32212657744601,
        "lon": -131.41971983066446,
        "alt_km": 823.2096056494793,
        "timestamp": "2025-12-15T20:48:54.169593+00:00",
        "meta_object_name": "FENGYUN 1C DEB",
        "meta_object_id": "1999-025CVX",
        "meta_epoch": "2025-12-14T08:30:03.848544",
        "meta_mean_motion": 14.13046821,
        "meta_eccentricity": 0.00717754,
        "meta_inclination": 99.0923,
        "meta_ra_of_asc_node": 37.0425,
        "meta_arg_of_pericenter": 201.9609,
        "meta_mean_anomaly": 157.8482,
        "meta_ephemeris_type": 0,
        "meta_classification_type": "U",
        "meta_norad_cat_id": 32225,
        "meta_element_set_no": 999,
        "meta_rev_at_epoch": 68139,
        "meta_bstar": 0.0002902606,
        "meta_mean_motion_dot": 5.09e-06,
        "meta_mean_motion_ddot": 0,
        "tle_line1": "1 32225U 99025CVX 25348.35421121  .00000509  00000+0  29026-3 0  9995",
        "tle_line2": "2 32225  99.0923  37.0425 0071775 201.9609 157.8482 14.13046821681395"
      },
      "geometry": {
        "type": "Point",
        "coordinates": [
          -131.41971983066446,
          47.32212657744601
        ]
      }
    },
    {
      "type": "Feature",
      "properties": {
        "norad_id": 32230,
        "name": "FENGYUN 1C DEB",
        "group": "fengyun-1c-debris",
        "lat": 81.00282359475638,
        "lon": 40.20050801099201,
        "alt_km": 662.7753287199284,
        "timestamp": "2025-12-15T20:48:54.169603+00:00",
        "meta_object_name": "FENGYUN 1C DEB",
        "meta_object_id": "1999-025CWC",
        "meta_epoch": "2025-12-13T09:10:06.590208",
        "meta_mean_motion": 14.56150163,
        "meta_eccentricity": 0.005055,
        "meta_inclination": 98.8706,
        "meta_ra_of_asc_node": 137.0363,
        "meta_arg_of_pericenter": 87.2509,
        "meta_mean_anomaly": 303.0071,
        "meta_ephemeris_type": 0,
        "meta_classification_type": "U",
        "meta_norad_cat_id": 32230,
        "meta_element_set_no": 999,
        "meta_rev_at_epoch": 60679,
        "meta_bstar": 0.0050290882,
        "meta_mean_motion_dot": 0.00022605,
        "meta_mean_motion_ddot": 0,
        "tle_line1": "1 32230U 99025CWC 25347.38202072  .00022605  00000+0  50291-2 0  9993",
        "tle_line2": "2 32230  98.8706 137.0363 0050550  87.2509 303.0071 14.56150163606793"
      },
      "geometry": {
        "type": "Point",
        "coordinates": [
          40.20050801099201,
          81.00282359475638
        ]
      }
    },
    {
      "type": "Feature",
      "properties": {
        "norad_id": 32234,
        "name": "FENGYUN 1C DEB",
        "group": "fengyun-1c-debris",
        "lat": -60.145890031019654,
        "lon": 4.325174516785314,
        "alt_km": 913.3676109222588,
        "timestamp": "2025-12-15T20:48:54.169613+00:00",
        "meta_object_name": "FENGYUN 1C DEB",
        "meta_object_id": "1999-025CWG",
        "meta_epoch": "2025-12-14T12:38:46.497984",
        "meta_mean_motion": 13.9413283,
        "meta_eccentricity": 0.01374559,
        "meta_inclination": 98.529,
        "meta_ra_of_asc_node": 198.2432,
        "meta_arg_of_pericenter": 331.2039,
        "meta_mean_anomaly": 28.1585,
        "meta_ephemeris_type": 0,
        "meta_classification_type": "U",
        "meta_norad_cat_id": 32234,
        "meta_element_set_no": 999,
        "meta_rev_at_epoch": 93234,
        "meta_bstar": 0.0014985343,
        "meta_mean_motion_dot": 2.108e-05,
        "meta_mean_motion_ddot": 0,
        "tle_line1": "1 32234U 99025CWG 25348.52692706  .00002108  00000+0  14985-2 0  9997",
        "tle_line2": "2 32234  98.5290 198.2432 0137455 331.2039  28.1585 13.94132830932348"
      },
      "geometry": {
        "type": "Point",
        "coordinates": [
          4.325174516785314,
          -60.145890031019654
        ]
      }
    },
    {
      "type": "Feature",
      "properties": {
        "norad_id": 32241,
        "name": "FENGYUN 1C DEB",
        "group": "fengyun-1c-debris",
        "lat": -50.416150098107885,
        "lon": 30.598259102619686,
        "alt_km": 809.0570638393438,
        "timestamp": "2025-12-15T20:48:54.169623+00:00",
        "meta_object_name": "FENGYUN 1C DEB",
        "meta_object_id": "1999-025CWP",
        "meta_epoch": "2025-12-12T20:47:10.610592",
        "meta_mean_motion": 14.28745094,
        "meta_eccentricity": 0.01463636,
        "meta_inclination": 99.0782,
        "meta_ra_of_asc_node": 16.3251,
        "meta_arg_of_pericenter": 223.1188,
        "meta_mean_anomaly": 135.8454,
        "meta_ephemeris_type": 0,
        "meta_classification_type": "U",
        "meta_norad_cat_id": 32241,
        "meta_element_set_no": 999,
        "meta_rev_at_epoch": 93825,
        "meta_bstar": 0.0022024177,
        "meta_mean_motion_dot": 6.175e-05,
        "meta_mean_motion_ddot": 0,
        "tle_line1": "1 32241U 99025CWP 25346.86609503  .00006175  00000+0  22024-2 0  9994",
        "tle_line2": "2 32241  99.0782  16.3251 0146363 223.1188 135.8454 14.28745094938256"
      },
      "geometry": {
        "type": "Point",
        "coordinates": [
          30.598259102619686,
          -50.416150098107885
        ]
      }
    },
    {
      "type": "Feature",
      "properties": {
        "norad_id": 32243,
        "name": "FENGYUN 1C DEB",
        "group": "fengyun-1c-debris",
        "lat": -21.434917416373548,
        "lon": 17.490480509050442,
        "alt_km": 1021.6383779836442,
        "timestamp": "2025-12-15T20:48:54.169635+00:00",
        "meta_object_name": "FENGYUN 1C DEB",
        "meta_object_id": "1999-025CWR",
        "meta_epoch": "2025-12-14T00:28:14.814624",
        "meta_mean_motion": 14.04614086,
        "meta_eccentricity": 0.0269468,
        "meta_inclination": 98.2684,
        "meta_ra_of_asc_node": 12.5319,
        "meta_arg_of_pericenter": 119.9156,
        "meta_mean_anomaly": 242.907,
        "meta_ephemeris_type": 0,
        "meta_classification_type": "U",
        "meta_norad_cat_id": 32243,
        "meta_element_set_no": 999,
        "meta_rev_at_epoch": 93606,
        "meta_bstar": 0.0022118855,
        "meta_mean_motion_dot": 4.858e-05,
        "meta_mean_motion_ddot": 0,
        "tle_line1": "1 32243U 99025CWR 25348.01961591  .00004858  00000+0  22119-2 0  9994",
        "tle_line2": "2 32243  98.2684  12.5319 0269468 119.9156 242.9070 14.04614086936063"
      },
      "geometry": {
        "type": "Point",
        "coordinates": [
          17.490480509050442,
          -21.434917416373548
        ]
      }
    },
    {
      "type": "Feature",
      "properties": {
        "norad_id": 32245,
        "name": "FENGYUN 1C DEB",
        "group": "fengyun-1c-debris",
        "lat": -16.511320437009587,
        "lon": -171.27117396585425,
        "alt_km": 576.4474604152865,
        "timestamp": "2025-12-15T20:48:54.169645+00:00",
        "meta_object_name": "FENGYUN 1C DEB",
        "meta_object_id": "1999-025CWT",
        "meta_epoch": "2025-12-08T06:47:00.083040",
        "meta_mean_motion": 14.76843452,
        "meta_eccentricity": 0.00978135,
        "meta_inclination": 98.6545,
        "meta_ra_of_asc_node": 178.0112,
        "meta_arg_of_pericenter": 355.9473,
        "meta_mean_anomaly": 4.0932,
        "meta_ephemeris_type": 0,
        "meta_classification_type": "U",
        "meta_norad_cat_id": 32245,
        "meta_element_set_no": 999,
        "meta_rev_at_epoch": 66040,
        "meta_bstar": 0.0014541087,
        "meta_mean_motion_dot": 0.00011,
        "meta_mean_motion_ddot": 0,
        "tle_line1": "1 32245U 99025CWT 25342.28263985  .00011000  00000+0  14541-2 0  9998",
        "tle_line2": "2 32245  98.6545 178.0112 0097813 355.9473   4.0932 14.76843452660407"
      },
      "geometry": {
        "type": "Point",
        "coordinates": [
          -171.27117396585425,
          -16.511320437009587
        ]
      }
    }
  ]
}